STARLINK-30502          
1 57973U 23151K   26068.07659787 -.00003338  00000+0 -11181-3 0  9997
2 57973  43.0036 339.3691 0001924 254.6619 105.4020 15.27576128135670
NESS                    
1 58020U 23155E   26068.76452457  .00019469  00000+0  74047-3 0  9996
2 58020  97.5941 152.6141 0006891 179.8776 180.2465 15.26794015133307
